UNKNOWN                 
1 81359U          26065.38048578  .00001113  00000+0  11015-2 0  9993
2 81359  66.7972 211.7760 0119895 269.5515  89.1819 13.78981777617014
UNKNOWN                 
1 81366U          26061.92969977  .00000839  00000+0  32297-3 0  9992
2 81366  65.8803 242.2206 0712435  42.5375 322.8660 13.45377095 76747
UNKNOWN                 
1 81371U          26065.52649019  .00005407  00000+0  85451-3 0  9996
2 81371  98.8098 173.7140 0070126 103.6937 257.2087 14.71141372654155
UNKNOWN                 
1 81392U          26063.74591998  .00003705  00000+0  34598-2 0  9997
2 81392 100.4046  65.3082 0039118 183.0651 355.2593 13.82274067613507
UNKNOWN                 
1 81405U          26062.94966857  .00001635  00000+0  12527-2 0  9991
2 81405  99.4597 117.4079 0157918   7.0973 353.2369 13.89145588573074
UNKNOWN                 
1 81427U          26065.12957349  .00000462  00000+0  29220-3 0  9990
2 81427  98.7436 309.5698 0083932 162.7440 197.6613 14.07093319563497
UNKNOWN                 
1 81438U          26064.37660098  .00002957  00000+0  43174-2 0  9994
2 81438 100.3256 304.7008 0048927 239.6708 119.9582 13.55193005603130
UNKNOWN                 
1 81439U          26064.18574921  .00000467  00000+0  14500-2 0  9998
2 81439  67.1625 342.3805 0596050 152.4216 210.9808 12.62651463272303
UNKNOWN                 
1 81449U          26065.51710208  .00129882  00000+0  63799-2 0  9994
2 81449  66.7879 104.8177 0023320  18.4610 341.7374 15.17099882646183
UNKNOWN                 
1 81478U          26065.25725990  .00004134  00000+0  14733-2 0  9997
2 81478  98.9513 344.3498 0145498 115.3880  35.2014 14.29022380634860
UNKNOWN                 
1 81488U          26065.60435505  .00000244  00000+0  40812-3 0  9993
2 81488  99.9933 304.4898 0044632 150.8726 239.9146 13.56551340608008
UNKNOWN                 
1 81497U          26060.98000182  .00003724  00000+0  33385-2 0  9990
2 81497 100.2999 328.2356 0027031 170.1750 255.6004 13.84808267227262
UNKNOWN                 
1 81499U          26065.40613901  .00004153  00000+0  11323-2 0  9998
2 81499  74.0478  64.7347 0002728 235.8602 124.2298 14.47678161494526
UNKNOWN                 
1 81535U          26065.17305765  .00001126  00000+0  47752-3 0  9992
2 81535  98.1904 145.5466 0233541 267.0342  90.4087 14.13637785399181
UNKNOWN                 
1 81536U          26064.37164243  .00000691  00000+0  44777-2 0  9997
2 81536 101.9676 291.4387 0018378 119.6505  62.2506 12.55976218562182
UNKNOWN                 
1 81537U          26061.36988542  .00000297  00000+0  19949-3 0  9996
2 81537  71.0398 304.5004 0075868  31.0100 329.5464 14.07156543631660
UNKNOWN                 
1 81552U          26062.99051824  .00000796  00000+0  17859-2 0  9998
2 81552  99.0680 343.5122 0257007 182.8220 177.1461 13.18320008589958
